ONEWEB-0427             
1 50499U 21132AG  24208.19172734  .00000058  00000+0  11558-3 0  9991
2 50499  87.9137 113.0155 0002103  83.0345 277.1027 13.18685511131841
ONEWEB-0429             
1 50500U 21132AH  24207.72383112 -.00000030  00000+0 -10954-3 0  9997
2 50500  87.9144 113.1170 0001892  71.4666 288.6671 13.18685181130452
ONEWEB-0430             
1 50501U 21132AJ  24207.25749171  .00000102  00000+0  22716-3 0  9994
2 50501  87.9141 113.2130 0001475  75.6733 284.4563 13.18686718130434
ONEWEB-0432             
1 50502U 21132AK  24208.19963205  .00000047  00000+0  85708-4 0  9994
2 50502  87.9139 113.0180 0001643  89.8164 270.3157 13.18685689131819
ONEWEB-0440             
1 50503U 21132AL  24208.18698892  .00000052  00000+0  99404-4 0  9995
2 50503  87.9142 113.0102 0002361  65.6437 294.4942 13.18685911131795
ONEWEB-0450             
1 50504U 21132AM  24207.72552776  .00000067  00000+0  13640-3 0  9998
2 50504  87.9144 113.1305 0001611  65.6873 294.4427 13.18682172130473
ONEWEB-0410             
1 51622U 22012A   24207.36273916  .00000060  00000+0  12076-3 0  9999
2 51622  87.9188 143.6063 0003328  99.0502 261.1006 13.17649929122599
ONEWEB-0411             
1 51623U 22012B   24207.36678440  .00000675  00000+0  18962-2 0  9992
2 51623  87.8961 173.8515 0001412  89.8463 270.2826 13.10371798118685
